FLOCK 4G-25             
1 62646U 25009AP  26068.74572546  .00010373  00000+0  38902-3 0  9990
2 62646  97.4049 151.4141 0000828 316.3151  43.8023 15.27424196 63734
STARLINK-35533          
1 66429U 25259H   26067.97536725  .00042910  00000+0  15615-2 0  9990
2 66429  43.0059 278.2403 0003009 262.8657  97.1852 15.27541105 19388
