[{"OBJECT_NAME":"FLOCK 4G-25","OBJECT_ID":"2025-009AP","EPOCH":"2026-03-09T17:53:50.680608","MEAN_MOTION":15.27424196,"ECCENTRICITY":8.276e-5,"INCLINATION":97.4049,"RA_OF_ASC_NODE":151.4141,"ARG_OF_PERICENTER":316.3151,"MEAN_ANOMALY":43.8023,"EPHEMERIS_TYPE":0,"CLASSIFICATION_TYPE":"U","NORAD_CAT_ID":62646,"ELEMENT_SET_NO":999,"REV_AT_EPOCH":6373,"BSTAR":0.00038902475,"MEAN_MOTION_DOT":0.00010373,"MEAN_MOTION_DDOT":0},{"OBJECT_NAME":"STARLINK-35533","OBJECT_ID":"2025-259H","EPOCH":"2026-03-08T23:24:31.730400","MEAN_MOTION":15.27541105,"ECCENTRICITY":0.00030097,"INCLINATION":43.0059,"RA_OF_ASC_NODE":278.2403,"ARG_OF_PERICENTER":262.8657,"MEAN_ANOMALY":97.1852,"EPHEMERIS_TYPE":0,"CLASSIFICATION_TYPE":"U","NORAD_CAT_ID":66429,"ELEMENT_SET_NO":999,"REV_AT_EPOCH":1938,"BSTAR":0.0015615382,"MEAN_MOTION_DOT":0.0004291,"MEAN_MOTION_DDOT":0}]
